IRIDIUM 136             
1 42962U 17061H   23254.56356295  .00000208  00000+0  67267-4 0  9996
2 42962  86.3912  87.2005 0002250  92.5425 267.6028 14.34218167310127
